{
    "links": {
        "self": "http://www.neowsapp.com/rest/v1/neo/3137732?api_key=iIulBulltgU6a56xZRHN4H3l9WmuAYTsLGpBGhQ2"
    },
    "id": "3137732",
    "neo_reference_id": "3137732",
    "name": "(2002 TA58)",
    "designation": "2002 TA58",
    "nasa_jpl_url": "http://ssd.jpl.nasa.gov/sbdb.cgi?sstr=3137732",
    "absolute_magnitude_h": 26.8,
    "estimated_diameter": {
        "kilometers": {
            "estimated_diameter_min": 0.0116025908,
            "estimated_diameter_max": 0.0259441818
        },
        "meters": {
            "estimated_diameter_min": 11.6025908209,
            "estimated_diameter_max": 25.9441817907
        },
        "miles": {
            "estimated_diameter_min": 0.0072095135,
            "estimated_diameter_max": 0.0161209622
        },
        "feet": {
            "estimated_diameter_min": 38.066244069,
            "estimated_diameter_max": 85.1187093863
        }
    },
    "is_potentially_hazardous_asteroid": false,
    "close_approach_data": [
        {
            "close_approach_date": "2002-10-07",
            "close_approach_date_full": "2002-Oct-07 03:56",
            "epoch_date_close_approach": 1033962960000,
            "relative_velocity": {
                "kilometers_per_second": "10.9498179026",
                "kilometers_per_hour": "39419.3444491868",
                "miles_per_hour": "24493.6476662183"
            },
            "miss_distance": {
                "astronomical": "0.0144237715",
                "lunar": "5.6108471135",
                "kilometers": "2157765.493766705",
                "miles": "1340773.305342329"
            },
            "orbiting_body": "Earth"
        }
    ],
    "orbital_data": {
        "orbit_id": "8",
        "orbit_determination_date": "2017-04-06 09:14:48",
        "first_observation_date": "2002-10-03",
        "last_observation_date": "2002-10-07",
        "data_arc_in_days": 4,
        "observations_used": 49,
        "orbit_uncertainty": "8",
        "minimum_orbit_intersection": ".00233528",
        "jupiter_tisserand_invariant": "3.156",
        "epoch_osculation": "2452552.5",
        "eccentricity": ".6269643150315808",
        "semi_major_axis": "2.508303036819399",
        "inclination": "1.691001084734485",
        "ascending_node_longitude": "192.0917695818271",
        "orbital_period": "1451.003409100398",
        "perihelion_distance": ".9356865414482907",
        "perihelion_argument": "217.8454587986535",
        "aphelion_distance": "4.080919532190508",
        "perihelion_time": "2452581.626490895382",
        "mean_anomaly": "352.7735960807711",
        "mean_motion": ".248104172424512",
        "equinox": "J2000",
        "orbit_class": {
            "orbit_class_type": "APO",
            "orbit_class_description": "Near-Earth asteroid orbits which cross the Earth’s orbit similar to that of 1862 Apollo",
            "orbit_class_range": "a (semi-major axis) > 1.0 AU; q (perihelion) < 1.017 AU"
        }
    },
    "is_sentry_object": false
}